{"type": "FeatureCollection", "features": [{"type": "Feature", "properties": {"norad_id": 26766, "name": "INTELSAT 10 (IS-10)", "group": "intelsat", "lat": -1.6015818495391119, "lon": -108.46088638890238, "alt_km": 36099.37709447503, "timestamp": "2025-12-21T03:56:50.521749+00:00", "meta": {"OBJECT_NAME": "INTELSAT 10 (IS-10)", "OBJECT_ID": "2001-019A", "EPOCH": "2025-12-20T17:29:18.796128", "MEAN_MOTION": 0.9907436, "ECCENTRICITY": 0.0007747, "INCLINATION": 8.6473, "RA_OF_ASC_NODE": 61.0766, "ARG_OF_PERICENTER": 228.8053, "MEAN_ANOMALY": 166.3968, "EPHEMERIS_TYPE": 0, "CLASSIFICATION_TYPE": "U", "NORAD_CAT_ID": 26766, "ELEMENT_SET_NO": 999, "REV_AT_EPOCH": 4381, "BSTAR": 0, "MEAN_MOTION_DOT": -1.02e-06, "MEAN_MOTION_DDOT": 0}, "tle": {"line1": "1 26766U 01019A   25354.72868977 -.00000102  00000+0  00000+0 0  9993", "line2": "2 26766   8.6473  61.0766 0007747 228.8053 166.3968  0.99074360 43819"}}, "geometry": {"type": "Point", "coordinates": [-108.46088638890238, -1.6015818495391119]}}, {"type": "Feature", "properties": {"norad_id": 26900, "name": "INTELSAT 902 (IS-902)", "group": "intelsat", "lat": 2.42390298152388, "lon": 98.9271732551133, "alt_km": 35805.04990993399, "timestamp": "2025-12-21T03:56:50.521772+00:00", "meta": {"OBJECT_NAME": "INTELSAT 902 (IS-902)", "OBJECT_ID": "2001-039A", "EPOCH": "2025-12-15T13:09:02.081664", "MEAN_MOTION": 1.0027087, "ECCENTRICITY": 0.00045028, "INCLINATION": 5.6536, "RA_OF_ASC_NODE": 74.0372, "ARG_OF_PERICENTER": 189.6359, "MEAN_ANOMALY": 327.9329, "EPHEMERIS_TYPE": 0, "CLASSIFICATION_TYPE": "U", "NORAD_CAT_ID": 26900, "ELEMENT_SET_NO": 999, "REV_AT_EPOCH": 8885, "BSTAR": 0, "MEAN_MOTION_DOT": -2.65e-06, "MEAN_MOTION_DDOT": 0}, "tle": {"line1": "1 26900U 01039A   25349.54794076 -.00000265  00000+0  00000+0 0  9997", "line2": "2 26900   5.6536  74.0372 0004502 189.6359 327.9329  1.00270870 88858"}}, "geometry": {"type": "Point", "coordinates": [98.9271732551133, 2.42390298152388]}}, {"type": "Feature", "properties": {"norad_id": 27380, "name": "INTELSAT 904 (IS-904)", "group": "intelsat", "lat": 4.705536727846664, "lon": 117.51371701025678, "alt_km": 35792.83756788353, "timestamp": "2025-12-21T03:56:50.521785+00:00", "meta": {"OBJECT_NAME": "INTELSAT 904 (IS-904)", "OBJECT_ID": "2002-007A", "EPOCH": "2025-12-20T14:47:29.636736", "MEAN_MOTION": 1.00270901, "ECCENTRICITY": 0.0001808, "INCLINATION": 6.473, "RA_OF_ASC_NODE": 71.342, "ARG_OF_PERICENTER": 248.5545, "MEAN_ANOMALY": 319.9209, "EPHEMERIS_TYPE": 0, "CLASSIFICATION_TYPE": "U", "NORAD_CAT_ID": 27380, "ELEMENT_SET_NO": 999, "REV_AT_EPOCH": 4997, "BSTAR": 0, "MEAN_MOTION_DOT": -2.07e-06, "MEAN_MOTION_DDOT": 0}, "tle": {"line1": "1 27380U 02007A   25354.61631524 -.00000207  00000+0  00000+0 0  9994", "line2": "2 27380   6.4730  71.3420 0001808 248.5545 319.9209  1.00270901 49971"}}, "geometry": {"type": "Point", "coordinates": [117.51371701025678, 4.705536727846664]}}, {"type": "Feature", "properties": {"norad_id": 27426, "name": "DIRECTV 5 (TEMPO 1)", "group": "intelsat", "lat": -2.7348144794264715, "lon": 39.18968067787748, "alt_km": 35793.745624160576, "timestamp": "2025-12-21T03:56:50.521796+00:00", "meta": {"OBJECT_NAME": "DIRECTV 5 (TEMPO 1)", "OBJECT_ID": "2002-023A", "EPOCH": "2025-12-20T16:07:51.941280", "MEAN_MOTION": 1.00272208, "ECCENTRICITY": 0.0003156, "INCLINATION": 4.421, "RA_OF_ASC_NODE": 77.5595, "ARG_OF_PERICENTER": 197.8635, "MEAN_ANOMALY": 305.9271, "EPHEMERIS_TYPE": 0, "CLASSIFICATION_TYPE": "U", "NORAD_CAT_ID": 27426, "ELEMENT_SET_NO": 999, "REV_AT_EPOCH": 8633, "BSTAR": 0, "MEAN_MOTION_DOT": -3.7e-07, "MEAN_MOTION_DDOT": 0}, "tle": {"line1": "1 27426U 02023A   25354.67212895 -.00000037  00000+0  00000+0 0  9996", "line2": "2 27426   4.4210  77.5595 0003156 197.8635 305.9271  1.00272208 86335"}}, "geometry": {"type": "Point", "coordinates": [39.18968067787748, -2.7348144794264715]}}, {"type": "Feature", "properties": {"norad_id": 27438, "name": "INTELSAT 905 (IS-905)", "group": "intelsat", "lat": -5.455326857191701, "lon": 12.171501306534486, "alt_km": 35788.060172150406, "timestamp": "2025-12-21T03:56:50.521807+00:00", "meta": {"OBJECT_NAME": "INTELSAT 905 (IS-905)", "OBJECT_ID": "2002-027A", "EPOCH": "2025-12-20T10:52:51.499776", "MEAN_MOTION": 1.00272487, "ECCENTRICITY": 0.00026639, "INCLINATION": 6.3037, "RA_OF_ASC_NODE": 71.9674, "ARG_OF_PERICENTER": 202.299, "MEAN_ANOMALY": 201.0262, "EPHEMERIS_TYPE": 0, "CLASSIFICATION_TYPE": "U", "NORAD_CAT_ID": 27438, "ELEMENT_SET_NO": 999, "REV_AT_EPOCH": 4957, "BSTAR": 0, "MEAN_MOTION_DOT": 1.12e-06, "MEAN_MOTION_DDOT": 0}, "tle": {"line1": "1 27438U 02027A   25354.45337384  .00000112  00000+0  00000+0 0  9993", "line2": "2 27438   6.3037  71.9674 0002663 202.2990 201.0262  1.00272487 49579"}}, "geometry": {"type": "Point", "coordinates": [12.171501306534486, -5.455326857191701]}}, {"type": "Feature", "properties": {"norad_id": 27445, "name": "GALAXY 3C (G-3C)", "group": "intelsat", "lat": -1.4239043470926467, "lon": 54.35866877154589, "alt_km": 35787.44914397217, "timestamp": "2025-12-21T03:56:50.521819+00:00", "meta": {"OBJECT_NAME": "GALAXY 3C (G-3C)", "OBJECT_ID": "2002-030A", "EPOCH": "2025-12-20T14:29:31.357824", "MEAN_MOTION": 1.00271785, "ECCENTRICITY": 0.0001136, "INCLINATION": 3.2823, "RA_OF_ASC_NODE": 80.4246, "ARG_OF_PERICENTER": 78.1134, "MEAN_ANOMALY": 53.4191, "EPHEMERIS_TYPE": 0, "CLASSIFICATION_TYPE": "U", "NORAD_CAT_ID": 27445, "ELEMENT_SET_NO": 999, "REV_AT_EPOCH": 4470, "BSTAR": 0, "MEAN_MOTION_DOT": -1.32e-06, "MEAN_MOTION_DDOT": 0}, "tle": {"line1": "1 27445U 02030A   25354.60383516 -.00000132  00000+0  00000+0 0  9993", "line2": "2 27445   3.2823  80.4246 0001136  78.1134  53.4191  1.00271785 44700"}}, "geometry": {"type": "Point", "coordinates": [54.35866877154589, -1.4239043470926467]}}, {"type": "Feature", "properties": {"norad_id": 27513, "name": "INTELSAT 906 (IS-906)", "group": "intelsat", "lat": 3.5584176310723628, "lon": -146.60781992702934, "alt_km": 35772.276428229794, "timestamp": "2025-12-21T03:56:50.521830+00:00", "meta": {"OBJECT_NAME": "INTELSAT 906 (IS-906)", "OBJECT_ID": "2002-041A", "EPOCH": "2025-12-20T20:07:29.951040", "MEAN_MOTION": 1.00272914, "ECCENTRICITY": 0.0006313, "INCLINATION": 5.3501, "RA_OF_ASC_NODE": 75.1356, "ARG_OF_PERICENTER": 199.098, "MEAN_ANOMALY": 181.4397, "EPHEMERIS_TYPE": 0, "CLASSIFICATION_TYPE": "U", "NORAD_CAT_ID": 27513, "ELEMENT_SET_NO": 999, "REV_AT_EPOCH": 8524, "BSTAR": 0, "MEAN_MOTION_DOT": 3.2e-07, "MEAN_MOTION_DDOT": 0}, "tle": {"line1": "1 27513U 02041A   25354.83854110  .00000032  00000+0  00000+0 0  9997", "line2": "2 27513   5.3501  75.1356 0006313 199.0980 181.4397  1.00272914 85248"}}, "geometry": {"type": "Point", "coordinates": [-146.60781992702934, 3.5584176310723628]}}, {"type": "Feature", "properties": {"norad_id": 27954, "name": "GALAXY 13 (HORIZONS-1)", "group": "intelsat", "lat": -0.9576509333426293, "lon": -0.8022138896705965, "alt_km": 35787.50365102073, "timestamp": "2025-12-21T03:56:50.521841+00:00", "meta": {"OBJECT_NAME": "GALAXY 13 (HORIZONS-1)", "OBJECT_ID": "2003-044A", "EPOCH": "2025-12-20T17:39:11.609856", "MEAN_MOTION": 1.00269908, "ECCENTRICITY": 0.0002382, "INCLINATION": 0.9571, "RA_OF_ASC_NODE": 86.3686, "ARG_OF_PERICENTER": 178.091, "MEAN_ANOMALY": 299.8853, "EPHEMERIS_TYPE": 0, "CLASSIFICATION_TYPE": "U", "NORAD_CAT_ID": 27954, "ELEMENT_SET_NO": 999, "REV_AT_EPOCH": 4478, "BSTAR": 0, "MEAN_MOTION_DOT": 1.55e-06, "MEAN_MOTION_DDOT": 0}, "tle": {"line1": "1 27954U 03044A   25354.73555104  .00000155  00000+0  00000+0 0  9996", "line2": "2 27954   0.9571  86.3686 0002382 178.0910 299.8853  1.00269908 44781"}}, "geometry": {"type": "Point", "coordinates": [-0.8022138896705965, -0.9576509333426293]}}, {"type": "Feature", "properties": {"norad_id": 28358, "name": "INTELSAT 10-02", "group": "intelsat", "lat": 0.028003315641642778, "lon": 148.22559828942457, "alt_km": 35789.509929459884, "timestamp": "2025-12-21T03:56:50.521860+00:00", "meta": {"OBJECT_NAME": "INTELSAT 10-02", "OBJECT_ID": "2004-022A", "EPOCH": "2025-12-20T20:04:27.698016", "MEAN_MOTION": 1.00272916, "ECCENTRICITY": 9.33e-05, "INCLINATION": 0.0206, "RA_OF_ASC_NODE": 70.8131, "ARG_OF_PERICENTER": 240.5058, "MEAN_ANOMALY": 78.4988, "EPHEMERIS_TYPE": 0, "CLASSIFICATION_TYPE": "U", "NORAD_CAT_ID": 28358, "ELEMENT_SET_NO": 999, "REV_AT_EPOCH": 7876, "BSTAR": 0, "MEAN_MOTION_DOT": 1.3e-07, "MEAN_MOTION_DDOT": 0}, "tle": {"line1": "1 28358U 04022A   25354.83643169  .00000013  00000+0  00000+0 0  9995", "line2": "2 28358   0.0206  70.8131 0000933 240.5058  78.4988  1.00272916 78765"}}, "geometry": {"type": "Point", "coordinates": [148.22559828942457, 0.028003315641642778]}}, {"type": "Feature", "properties": {"norad_id": 28626, "name": "XM-3 (RHYTHM)", "group": "intelsat", "lat": 0.1021459621897603, "lon": -136.56628339938862, "alt_km": 36166.768449976335, "timestamp": "2025-12-21T03:56:50.521884+00:00", "meta": {"OBJECT_NAME": "XM-3 (RHYTHM)", "OBJECT_ID": "2005-008A", "EPOCH": "2025-12-20T19:36:09.897408", "MEAN_MOTION": 0.98949913, "ECCENTRICITY": 0.0001956, "INCLINATION": 0.1946, "RA_OF_ASC_NODE": 81.989, "ARG_OF_PERICENTER": 277.9432, "MEAN_ANOMALY": 99.668, "EPHEMERIS_TYPE": 0, "CLASSIFICATION_TYPE": "U", "NORAD_CAT_ID": 28626, "ELEMENT_SET_NO": 999, "REV_AT_EPOCH": 4083, "BSTAR": 0, "MEAN_MOTION_DOT": 7.8e-07, "MEAN_MOTION_DDOT": 0}, "tle": {"line1": "1 28626U 05008A   25354.81678122  .00000078  00000+0  00000+0 0  9994", "line2": "2 28626   0.1946  81.9890 0001956 277.9432  99.6680  0.98949913 40831"}}, "geometry": {"type": "Point", "coordinates": [-136.56628339938862, 0.1021459621897603]}}]}